STARLINK-36168          
1 68677U 26077R   26112.60127819 -.00784318  00000+0 -55498-2 0  9997
2 68677  97.2827 343.6715 0000965 103.0129 257.1245 15.76035712  1820
